P/2014 M4 (PANSTARRS),e,3.3349,263.2775,147.9575,5.875801,0.0691996,0.59375075,143.1291,08/23.0/2020,2000,g 15.0,4.0
# From MPC103844
P/2014 MG4 (Spacewatch-PANSTARRS),e,9.3713,311.7343,299.0879,5.011707,0.0878467,0.25987437,230.3958,08/23.0/2020,2000,g  9.5,4.0
# From MPC 98560
P/2014 O3 (PANSTARRS),e,7.8082,87.6413,204.5493,7.561189,0.0474044,0.38633404,109.8043,08/23.0/2020,2000,g 10.5,4.0
# From MPEC 2020-AA5
C/2014 OE4 (PANSTARRS),h,12/12.7224/2016,81.3262,240.4073,65.8733,1.002891,6.248410,2000,11.0,2.0
# From MPC115880
C/2014 R3 (PANSTARRS),e,90.9137,334.0934,113.4550,9476,0.0000011,0.99923223,0.0000,08/08.8065/2016,2000,g  6.5,4.0
# From MPC 91615
P/2014 R5 (Lemmon-PANSTARRS),e,1.0883,126.5559,213.7112,4.056803,0.1206225,0.41346608,272.4176,08/23.0/2020,2000,g 15.0,4.0
# From MPC104790
C/2014 S2 (PANSTARRS),e,64.4974,8.1335,87.3267,170.2242,0.0004438,0.98777155,0.0000,12/09.0005/2015,2000,g 10.0,4.0
# From MPC 91616
P/2014 U4 (PANSTARRS),e,6.4280,11.9079,347.7242,3.508566,0.1499718,0.46532293,333.8309,08/23.0/2020,2000,g 18.0,4.0
# From MPC 95211
P/2014 V1 (PANSTARRS),e,22.5121,166.2036,177.5578,5.481776,0.0767931,0.53401661,156.6105,08/23.0/2020,2000,g 14.0,4.0
# From MPC 93586
P/2014 W1 (PANSTARRS),e,8.8389,246.2459,152.2773,4.460955,0.1046074,0.38864063,232.9414,08/23.0/2020,2000,g 15.5,4.0
# From MPC110493
C/2014 W2 (PANSTARRS),e,82.0478,69.9736,84.9392,576.8284,0.0000711,0.99536534,0.0000,03/08.1947/2016,2000,g  7.5,4.0
# From MPC105542
P/2014 W4 (PANSTARRS),e,15.2701,33.3515,67.9013,6.600933,0.0581161,0.35204276,98.6511,08/23.0/2020,2000,g 11.0,4.0
# From MPC 91616
C/2014 W8 (PANSTARRS),e,41.9745,224.8198,227.9612,168.4862,0.0004507,0.97022257,0.0000,09/08.6252/2015,2000,g 11.0,4.0
# From MPC115880
C/2014 W10 (PANSTARRS),e,82.8743,43.1160,43.6544,821.7758,0.0000418,0.99078311,0.0000,03/04.4123/2016,2000,g  8.0,4.0
# From MPC 93587
P/2014 W12 (Gibbs),e,8.5141,299.2899,36.9154,3.517907,0.1493748,0.52405818,315.1369,08/23.0/2020,2000,g 15.0,4.0
# From MPC 94281
P/2014 X1 (Elenin),e,25.9997,61.5024,33.9975,6.210801,0.0636770,0.70850020,131.2107,08/23.0/2020,2000,g 15.0,4.0
# From MPC100579
C/2014 Y1 (PANSTARRS),h,01/16.3524/2016,14.9115,19.5498,182.3354,1.001533,2.252891,2000,9.5,4.0
# From MPC 92275
P/2015 A3 (PANSTARRS),e,172.5284,277.1638,249.2207,7.807229,0.0451813,0.85154472,90.9294,08/23.0/2020,2000,g 20.0,4.0
# From MPC 99270
P/2015 B1 (PANSTARRS),e,18.0274,353.0397,188.8015,9.500960,0.0336553,0.36888813,60.6725,08/23.0/2020,2000,g  8.5,4.0
# From MPC108592
C/2015 B2 (PANSTARRS),h,05/05.7855/2016,105.0008,341.8583,284.7152,1.000007,3.369406,2000,9.5,4.0
# From MPC109141
P/2015 B4 (Lemmon-PANSTARRS),e,1.7600,266.0254,227.4987,8.535266,0.0395256,0.56049749,80.0652,08/23.0/2020,2000,g 11.0,4.0
# From MPC101096
P/2015 C1 (TOTAS-Gibbs),e,13.8874,348.8281,178.3622,6.587375,0.0582956,0.56025512,113.3075,08/23.0/2020,2000,g 12.5,4.0
# From MPC119995
C/2015 D3 (PANSTARRS),h,05/02.8750/2016,128.5470,157.0514,2.9816,1.003831,8.146851,2000,5.5,4.0
# From MPC109141
P/2015 D5 (Kowalski),e,20.4961,74.0602,39.9385,8.974986,0.0366567,0.48883425,85.6212,08/23.0/2020,2000,g  9.0,4.0
# From MPC 96866
P/2015 D6 (Lemmon-PANSTARRS),e,20.2046,46.0722,125.2239,7.148660,0.0515664,0.36221519,96.7243,08/23.0/2020,2000,g 10.5,4.0
# From MPC112390
C/2015 ER61 (PANSTARRS),e,6.3420,235.1796,68.2658,479.1941,0.0000940,0.99782496,0.0000,05/10.4120/2017,2000,g 11.0,2.0
# From MPEC 2018-BF5
C/2015 E61-B (PANSTARRS),e,6.3436,235.2147,68.3550,1282,0.0000215,0.99918548,0.0000,05/10.3896/2017,2000,g 13.5,2.0
# From MPC109142
P/2015 F1 (PANSTARRS),e,2.8025,40.3974,187.4420,3.523382,0.1490268,0.27815494,295.8485,08/23.0/2020,2000,g 12.5,4.0
# From MPC102096
C/2015 GX (PANSTARRS),e,90.2527,235.4605,108.7928,16.16057,0.0151712,0.87870477,27.6454,08/23.0/2020,2000,g 14.0,4.0
# From MPC117068
C/2015 H2 (PANSTARRS),h,09/14.2876/2016,33.6605,350.6836,288.0694,1.005640,4.975785,2000,7.5,4.0
# From MPC100280
P/2015 HG16 (PANSTARRS),e,18.8237,59.0411,47.2906,4.749961,0.0952070,0.35021578,214.3670,08/23.0/2020,2000,g 12.5,4.0
# From MPC101096
C/2015 J2 (PANSTARRS),e,17.2701,56.7671,203.9216,296.7071,0.0001928,0.98538800,0.0000,09/09.9377/2015,2000,g 10.0,4.0
# From MPC 95733
P/2015 J3 (NEOWISE),e,8.1310,111.3517,129.4449,3.348684,0.1608396,0.55443137,321.0549,08/23.0/2020,2000,g 16.5,4.0
# From MPC 95213
P/2015 K5 (PANSTARRS),e,39.9452,134.1794,106.3153,6.719183,0.0565887,0.55380058,107.7953,08/23.0/2020,2000,g 13.5,4.0
# From MPC107684
P/2015 M2 (PANSTARRS),e,3.9732,86.5808,225.3245,7.226007,0.0507407,0.18111082,91.8941,08/23.0/2020,2000,g  8.5,4.0
# From MPC115881
C/2015 M3 (PANSTARRS),e,65.8702,142.9971,123.9141,138.7987,0.0006027,0.97434393,0.0000,08/26.0539/2015,2000,g 12.0,4.0
# From MPC112390
C/2015 O1 (PANSTARRS),h,02/19.4926/2018,127.2265,299.8518,89.6347,1.000942,3.730010,2000,6.5,4.0
# From MPC 99819
P/2015 P4 (PANSTARRS),e,8.7179,104.7668,280.5747,6.050599,0.0662226,0.58436540,111.0972,08/23.0/2020,2000,g 14.0,4.0
# From MPC102952
P/2015 PD229 (Cameron-ISON),e,2.0261,342.6392,352.3935,7.180595,0.0512228,0.32809563,93.9879,08/23.0/2020,2000,g 11.5,2.0
# From MPC 99819
P/2015 Q1 (Scotti),e,22.3891,202.9756,199.8543,3.471885,0.1523548,0.47847111,277.7837,08/23.0/2020,2000,g 14.0,4.0
# From MPC 96867
P/2015 Q2 (Pimentel),e,146.4820,228.3966,244.4495,7.346126,0.0495013,0.75101614,89.7444,08/23.0/2020,2000,g 15.5,4.0
# From MPC 98562
P/2015 R1 (PANSTARRS),e,22.6761,48.4546,300.4012,5.880721,0.0691128,0.63391747,130.1757,08/23.0/2020,2000,g 14.0,4.0
# From MPC 95734
P/2015 R2 (PANSTARRS),e,15.4766,168.6042,149.7317,4.488908,0.1036318,0.45275315,196.8347,08/23.0/2020,2000,g 14.5,4.0
# From MPC117068
C/2015 T2 (PANSTARRS),e,124.5496,51.0373,30.6592,2210,0.0000095,0.99686279,0.0000,05/18.6085/2017,2000,g  8.0,4.0
# From MPC 96280
P/2015 T3 (PANSTARRS),e,13.0937,120.5019,178.6330,4.326181,0.1095335,0.50818108,359.9227,12/21.0/2014,2000,g 14.0,4.0
# From MPC102953
C/2015 T4 (PANSTARRS),e,87.9783,251.8125,270.0658,79.96952,0.0013782,0.97125635,0.0000,06/17.1047/2016,2000,g 11.0,4.0
# From MPC102097
C/2015 T5 (Sheppard-Tholen),e,11.0501,311.0716,61.8225,28.12143,0.0066092,0.66814647,11.0646,08/23.0/2020,2000,g  7.5,4.0
# From MPC102953
P/2015 TO19 (Lemmon-PANSTARRS),e,6.4995,321.6496,89.1539,4.556802,0.1013243,0.35791894,165.3383,08/23.0/2020,2000,g 14.0,4.0
# From MPC110080
P/2015 TP200 (LINEAR),e,8.7755,6.9894,82.6641,7.278466,0.0501931,0.53488000,70.0603,08/23.0/2020,2000,g 11.0,4.0
# From MPC101097
C/2015 TQ209 (LINEAR),e,11.3028,223.3577,282.1738,621.5963,0.0000636,0.99772155,0.0000,08/25.7455/2016,2000,g 10.5,4.0
# From MPC115881
C/2015 V1 (PANSTARRS),e,139.2237,197.1892,179.6203,2890,0.0000063,0.99852270,0.0000,12/17.0858/2017,2000,g  6.5,4.0
# From MPC112390
C/2015 V2 (Johnson),h,06/12.0555/2017,49.8648,69.8769,164.9953,1.001874,1.642834,2000,5.0,4.0
# From MPC102953
C/2015 V3 (PANSTARRS),e,86.2506,2.2338,0.7220,632.2775,0.0000620,0.99330629,0.0000,11/24.0205/2015,2000,g  9.0,4.0
# From MPC104791
C/2015 V4 (PANSTARRS),e,60.7768,179.9251,307.0121,18.48720,0.0123993,0.70453331,18.0474,08/23.0/2020,2000,g  8.5,4.0
# From MPC115881
C/2015 VL62 (Lemmon-Yeung-PANSTARRS),h,08/27.9390/2017,165.8157,95.0939,128.7581,1.001130,2.716022,2000,8.0,4.0
# From MPC102098
C/2015 WZ (PANSTARRS),e,134.5975,40.1655,66.7088,146.5918,0.0005553,0.99058885,0.0000,04/13.8226/2016,2000,g 15.0,4.0
# From MPC109142
C/2015 W1 (Gibbs),e,87.3634,114.3163,48.1830,4471,0.0000033,0.99949826,0.0000,05/14.3059/2016,2000,g 13.0,4.0
# From MPC101098
P/2015 W2 (Catalina),e,11.6070,294.2570,117.5194,7.298032,0.0499914,0.63362109,89.4189,08/23.0/2020,2000,g 13.0,4.0
# From MPC101098
P/2015 X1 (PANSTARRS),e,12.1516,161.7727,218.9584,3.631179,0.1424402,0.41897205,253.8337,08/23.0/2020,2000,g 16.0,4.0
# From MPEC 2020-AA5
C/2015 XY1 (Lemmon),h,04/28.0761/2018,148.8555,281.6247,196.2491,1.003274,7.924685,2000,5.5,4.0
# From MPC100281
C/2015 X2 (Catalina),e,72.0724,101.0988,42.3436,15.79339,0.0157033,0.87800157,26.8503,08/23.0/2020,2000,g 16.0,4.0
# From MPC 97498
P/2015 X3 (PANSTARRS),e,24.3843,77.3240,306.6519,5.010473,0.0878792,0.43857148,161.9098,08/23.0/2020,2000,g 15.0,4.0
# From MPC109142
C/2015 X4 (Elenin),e,29.5042,262.6099,176.2259,17.94254,0.0129682,0.81110829,22.7673,08/23.0/2020,2000,g 10.0,4.0
# From MPC119995
C/2015 X5 (PANSTARRS),h,12/29.7154/2017,124.3082,122.3468,27.6750,1.002286,6.798158,2000,7.5,4.0
# From MPC115881
P/2015 X6 (PANSTARRS),e,4.5648,106.9466,329.8740,2.752970,0.2157753,0.17246877,348.1014,08/23.0/2020,2000,g 16.0,4.0
# From MPC109143
C/2015 X7 (ATLAS),e,57.5608,139.9248,348.4142,34124,0.0000002,0.99989207,0.0000,07/29.2962/2016,2000,g  9.0,4.0
# From MPC107048
C/2015 X8 (NEOWISE),e,155.1871,191.1590,20.4004,19.75180,0.0112278,0.94006294,19.8128,08/23.0/2020,2000,g 16.0,4.0
# From MPC109143
C/2015 Y1 (LINEAR),e,71.1655,135.8173,24.6753,247.7171,0.0002528,0.98984114,0.0000,05/13.8490/2016,2000,g 12.0,4.0
# From MPC105543
C/2015 YG1 (NEOWISE),e,57.2898,350.5603,102.4741,16.99546,0.0140671,0.87853190,25.1976,08/23.0/2020,2000,g 13.0,4.0
# From MPC119995
C/2016 A1 (PANSTARRS),h,11/22.7386/2017,121.2052,128.2072,10.2599,1.001585,5.323965,2000,6.0,4.0
# From MPC100282
P/2016 A2 (Christensen),e,26.4070,291.6139,141.5650,4.750291,0.0951971,0.27089233,180.0364,08/23.0/2020,2000,g 11.5,4.0
# From MPC115881
P/2016 A3 (PANSTARRS),e,8.5105,187.2771,340.9479,7.890241,0.0444702,0.38755978,53.8773,08/23.0/2020,2000,g 10.0,4.0
# From MPC109143
C/2016 A6 (PANSTARRS),e,120.9354,300.3784,141.0368,205.4387,0.0003347,0.98830172,0.0000,11/06.5065/2015,2000,g 15.0,4.0
# From MPC102098
P/2016 A7 (PANSTARRS),e,16.6238,221.4839,352.6304,5.031414,0.0873311,0.56537349,143.3289,08/23.0/2020,2000,g 16.0,4.0
# From MPC106345
C/2016 A8 (LINEAR),e,148.2429,111.3329,130.3908,34.29002,0.0049085,0.94495064,7.1403,08/23.0/2020,2000,g 12.0,4.0
# From MPC107048
C/2016 B1 (NEOWISE),e,50.4593,231.9917,8.6816,442.4216,0.0001059,0.99273384,0.0000,12/04.7106/2016,2000,g  9.5,4.0
